STARLINK-6130           
1 57104U 23090D   24264.17204493  .00002318  00000+0  18669-3 0  9995
2 57104  43.0040 304.8537 0001583 266.0642  94.0020 15.02527322 69855
STARLINK-6097           
1 57105U 23090E   24264.50109632  .00000490  00000+0  51339-4 0  9993
2 57105  43.0005 303.0159 0000658 207.8855 152.1952 15.02534227 69907
STARLINK-6118           
1 57106U 23090F   24264.42906571  .00001492  00000+0  12547-3 0  9992
2 57106  43.0037 303.3374 0001121 273.6826  86.3888 15.02537991 69895
STARLINK-6131           
1 57107U 23090G   24264.48223917  .00005437  00000+0  41725-3 0  9998
2 57107  43.0029 302.8783 0001535 264.1365  95.9302 15.02532847 69901
STARLINK-6099           
1 57108U 23090H   24264.09890031  .00003346  00000+0  26265-3 0  9992
2 57108  43.0013 305.1609 0001071 289.1386  70.9341 15.02538506 69840
STARLINK-6139           
1 57109U 23090J   24264.48777976  .00003932  00000+0  30601-3 0  9998
2 57109  43.0042 302.9210 0001163 279.3620  80.7091 15.02537142 69903
STARLINK-6134           
1 57110U 23090K   24264.43238110  .00004193  00000+0  32514-3 0  9992
2 57110  43.0021 303.3643 0000683 290.8266  69.2503 15.02552226 69895
STARLINK-6140           
1 57111U 23090L   24264.40910105  .00003914  00000+0  30476-3 0  9996
2 57111  43.0038 303.1897 0001149 262.2780  97.7932 15.02526104 69893
STARLINK-6141           
1 57112U 23090M   24264.42574741  .00006391  00000+0  48769-3 0  9997
2 57112  43.0027 303.3150 0001283 279.5267  80.5431 15.02541410 69897
STARLINK-6142           
1 57113U 23090N   24264.48112936  .00006564  00000+0  50050-3 0  9996
2 57113  43.0019 302.8687 0001327 259.6196 100.4497 15.02537730 69903
STARLINK-6125           
1 57114U 23090P   24264.41130548 -.00000069  00000+0  99605-5 0  9995
2 57114  43.0020 303.2017 0001133 275.9374  84.1339 15.02538452 69895
STARLINK-6085           
1 57115U 23090Q   24264.40576067  .00002645  00000+0  21085-3 0  9991
2 57115  43.0063 303.1633 0001330 265.1526  94.9165 15.02529322 69897
STARLINK-6129           
1 57116U 23090R   24264.48443137 -.00004171  00000+0 -29367-3 0  9990
2 57116  43.0031 302.8936 0001326 272.1059  87.9632 15.02562228 69904
STARLINK-6148           
1 57117U 23090S   24264.46888966  .00003001  00000+0  23707-3 0  9993
2 57117  43.0027 302.7754 0001004 278.5654  81.5075 15.02549007 69902
STARLINK-6151           
1 57118U 23090T   24264.47446102  .00003163  00000+0  24911-3 0  9994
2 57118  43.0025 302.8174 0001532 273.7711  86.2956 15.02533259 69907
STARLINK-6150           
1 57119U 23090U   24264.39798417  .00002008  00000+0  16366-3 0  9997
2 57119  42.9997 303.1002 0001240 267.2639  92.8061 15.02539340 69896
STARLINK-6147           
1 57120U 23090V   24264.47112310  .00001593  00000+0  13292-3 0  9993
2 57120  43.0035 302.7916 0001047 272.3125  87.7598 15.02540069 69904
STARLINK-6152           
1 57121U 23090W   24264.45557909 -.00004095  00000+0 -28812-3 0  9995
2 57121  43.0011 302.6750 0001083 264.9315  95.1404 15.02555883 69710
STARLINK-6149           
1 57122U 23090X   24264.39466051 -.00000392  00000+0 -13945-4 0  9994
2 57122  42.9977 303.0725 0000966 270.9621  89.1111 15.02539002 69895
STARLINK-6154           
1 57123U 23090Y   24264.38578180  .00002834  00000+0  22477-3 0  9991
2 57123  43.0025 303.0082 0001211 262.1545  97.9160 15.02535351 69704
STARLINK-6146           
1 57124U 23090Z   24264.45890880  .00001686  00000+0  13984-3 0  9991
2 57124  43.0019 302.6986 0001133 253.4477 106.6241 15.02542239 69909
STARLINK-6100           
1 57125U 23090AA  24264.37172041  .00005313  00000+0  40800-3 0  9993
2 57125  43.0036 290.7465 0001088 272.1032  87.9686 15.02545453 69840
STARLINK-6167           
1 57126U 23090AB  24264.39133060 -.00000210  00000+0 -44347-6 0  9990
2 57126  43.0022 303.0538 0001768 285.8559  74.2088 15.02535507 69894
STARLINK-6165           
1 57127U 23090AC  24264.38135302  .00003474  00000+0  27214-3 0  9995
2 57127  43.0044 302.9751 0001184 276.1878  83.8829 15.02528362 69703
STARLINK-6163           
1 57128U 23090AD  24264.38799643  .00002224  00000+0  17963-3 0  9992
2 57128  43.0023 303.0247 0001016 250.2697 109.8036 15.02539129 69701
STARLINK-6170           
1 57129U 23090AE  24264.38615517  .00003092  00000+0  24385-3 0  9990
2 57129  43.0043 290.8556 0001392 274.8024  85.2659 15.02537864 69840
STARLINK-6172           
1 57130U 23090AF  24264.38245287  .00001366  00000+0  11619-3 0  9993
2 57130  43.0029 302.9831 0000910 226.2382 133.8385 15.02533796 69701
STARLINK-6162           
1 57131U 23090AG  24264.38171832  .00003686  00000+0  28783-3 0  9995
2 57131  43.0036 290.8213 0001372 278.9153  81.1534 15.02533581 69840
STARLINK-6128           
1 57132U 23090AH  24264.37578868  .00002305  00000+0  18560-3 0  9994
2 57132  43.0025 302.9325 0001015 244.2275 115.8463 15.02537534 69706
STARLINK-6143           
1 57133U 23090AJ  24264.43486792 -.00001018  00000+0 -60274-4 0  9998
2 57133  43.0028 290.3601 0001190 282.5055  77.5655 15.02541398 69858
STARLINK-6133           
1 57134U 23090AK  24264.44929260 -.00003732  00000+0 -26115-3 0  9992
2 57134  43.0027 290.4689 0000998 260.1582  99.9148 15.02559926 69858
STARLINK-6127           
1 57135U 23090AL  24264.35840674  .00000182  00000+0  28518-4 0  9998
2 57135  43.0024 290.6439 0000952 256.9820 103.0916 15.02531849 69842
STARLINK-6112           
1 57136U 23090AM  24264.37949439  .00000941  00000+0  84711-4 0  9990
2 57136  43.0056 290.8064 0001248 284.2545  75.8158 15.02541180 69866
STARLINK-5347           
1 57137U 23090AN  24264.43265746  .00002911  00000+0  23051-3 0  9998
2 57137  43.0033 290.3430 0001338 279.4893  80.5798 15.02531481 69851
STARLINK-5336           
1 57138U 23090AP  24264.51133409 -.00005406  00000+0 -38519-3 0  9997
2 57138  43.0030 290.0720 0001219 272.7054  87.3649 15.02559149 69863
STARLINK-5355           
1 57139U 23090AQ  24264.36172886  .00001455  00000+0  12271-3 0  9998
2 57139  43.0048 290.6683 0000890 270.8272  89.2469 15.02539580 69848
STARLINK-5354           
1 57140U 23090AR  24264.35714991  .03100057  16390-1  28065-2 0  9997
2 57140  42.9891 217.2137 0012266 184.5711 309.7194 16.14410429 69694
STARLINK-5357           
1 57141U 23090AS  24264.42265597  .00002293  00000+0  18472-3 0  9990
2 57141  43.0035 290.2619 0000960 260.8998  99.1735 15.02542620 69850
STARLINK-5361           
1 57142U 23090AT  24264.35174084  .00002328  00000+0  18732-3 0  9991
2 57142  43.0025 290.5875 0000844 246.7614 113.3140 15.02539893 69842
STARLINK-5358           
1 57143U 23090AU  24264.34842471  .00003671  00000+0  28676-3 0  9993
2 57143  43.0054 290.5678 0001116 269.7645  90.3070 15.02530398 69845
STARLINK-5150           
1 57144U 23090AV  24264.42599545  .00002941  00000+0  23270-3 0  9998
2 57144  43.0031 290.2922 0001435 265.3086  94.7592 15.02535229 69851
STARLINK-5768           
1 57145U 23090AW  24264.33953801  .00003411  00000+0  26741-3 0  9997
2 57145  43.0045 290.4995 0001292 277.2166  82.8529 15.02539366 69844
STARLINK-5791           
1 57146U 23090AX  24264.34619589  .00002655  00000+0  21152-3 0  9991
2 57146  43.0030 290.5519 0001426 268.1196  91.9483 15.02537712 69846
STARLINK-5765           
1 57147U 23090AY  24264.46805309  .00003943  00000+0  30682-3 0  9991
2 57147  43.0025 289.7421 0001301 268.3065  91.7628 15.02534900 70052
STARLINK-5788           
1 57148U 23090AZ  24264.39491732  .00001848  00000+0  15186-3 0  9999
2 57148  43.0035 290.0542 0001418 266.8510  93.2170 15.02533198 69853
STARLINK-5778           
1 57149U 23090BA  24264.34892260  .00000579  00000+0  57951-4 0  9993
2 57149  43.0027 264.5269 0001353 267.7573  92.3114 15.02535823 70334
STARLINK-5780           
1 57150U 23090BB  24264.34286693  .00004389  00000+0  33970-3 0  9999
2 57150  43.0024 290.5216 0001255 266.6986  93.3713 15.02544247 70034
STARLINK-5776           
1 57151U 23090BC  24264.34175220  .00001401  00000+0  11873-3 0  9993
2 57151  42.9987 290.5088 0001197 189.5122 170.5698 15.02537641 70038
STARLINK-6164           
1 57152U 23090BD  24264.41155149 -.00009569  00000+0 -69347-3 0  9994
2 57152  43.0036 290.1781 0000939 283.2947  76.7791 15.02580303 70047
STARLINK-5879           
1 57153U 23090BE  24264.43511793 -.00003122  00000+0 -21605-3 0  9992
2 57153  43.0020 277.3393 0001085 270.8069  89.2649 15.02555022 69697
STARLINK-6106           
1 57154U 23090BF  24264.13677358  .00001056  00000+0  93205-4 0  9998
2 57154  43.0027 291.5558 0001018 268.5894  91.4832 15.02533292 70003
STARLINK-6108           
1 57155U 23090BG  24264.45473771  .00002477  00000+0  19838-3 0  9994
2 57155  43.0035 289.6437 0001344 264.5337  95.5352 15.02533522 70050
STARLINK-6137           
1 57156U 23090BH  24264.12568752  .00001572  00000+0  13151-3 0  9990
2 57156  43.0029 291.4750 0001513 274.4987  85.5682 15.02519411 70003
STARLINK-5525           
1 57218U 23094A   24264.46537337  .00000598  00000+0  59332-4 0  9994
2 57218  42.9998  58.9912 0000797 259.6035 100.4717 15.02539085 66609
STARLINK-5520           
1 57219U 23094B   24263.79726553  .00000362  00000+0  41851-4 0  9996
2 57219  43.0045  62.5818 0001384 271.4429  88.6255 15.02536436 66503
STARLINK-5880           
1 57220U 23094C   24264.51299053  .00004937  00000+0  38032-3 0  9997
2 57220  43.0033  58.4891 0001527 267.3062  92.7605 15.02532282 66615
STARLINK-5875           
1 57221U 23094D   24264.45982763  .00003775  00000+0  29442-3 0  9992
2 57221  43.0041  58.9527 0001324 273.6546  86.4145 15.02532646 66600
STARLINK-5870           
1 57222U 23094E   24264.45315914  .00000686  00000+0  65808-4 0  9996
2 57222  43.0033  58.9013 0000942 279.4015  80.6721 15.02542322 67230
STARLINK-5519           
1 57223U 23094F   24264.45649424  .00000955  00000+0  85743-4 0  9992
2 57223  43.0039  58.9263 0001368 259.0017 101.0671 15.02536911 66602
